{
 "type": "FeatureCollection",
 "crs": {
  "type": "name",
  "properties": {
   "name": "EPSG:5187"
  }
 },
 "wg_crs_wkt": "PROJCRS[\"KGD2002 / East Belt 2010\",BASEGEOGCRS[\"KGD2002\",DATUM[\"Korean Geodetic Datum 2002\",ELLIPSOID[\"GRS 1980\",6378137,298.257222101,LENGTHUNIT[\"metre\",1]]],PRIMEM[\"Greenwich\",0,ANGLEUNIT[\"degree\",0.0174532925199433]],ID[\"EPSG\",4737]],CONVERSION[\"Korea East Belt 2010\",METHOD[\"Transverse Mercator\",ID[\"EPSG\",9807]],PARAMETER[\"Latitude of natural origin\",38,ANGLEUNIT[\"degree\",0.0174532925199433],ID[\"EPSG\",8801]],PARAMETER[\"Longitude of natural origin\",129,ANGLEUNIT[\"degree\",0.0174532925199433],ID[\"EPSG\",8802]],PARAMETER[\"Scale factor at natural origin\",1,SCALEUNIT[\"unity\",1],ID[\"EPSG\",8805]],PARAMETER[\"False easting\",200000,LENGTHUNIT[\"metre\",1],ID[\"EPSG\",8806]],PARAMETER[\"False northing\",600000,LENGTHUNIT[\"metre\",1],ID[\"EPSG\",8807]]],CS[Cartesian,2],AXIS[\"northing (X)\",north,ORDER[1],LENGTHUNIT[\"metre\",1]],AXIS[\"easting (Y)\",east,ORDER[2],LENGTHUNIT[\"metre\",1]],USAGE[SCOPE[\"Cadastre, topographic mapping.\"],AREA[\"Republic of Korea (South Korea) - onshore between 128°E and 130°E.\"],BBOX[34.49,128,38.64,129.65]],ID[\"EPSG\",5187]]",
 "wg_layer_name": "roads",
 "wg_feature_kind": "UNKNOWN",
 "features": [
  {
   "type": "Feature",
   "geometry": {
    "type": "LineString",
    "coordinates": [
     [
      240000.0,
      490180.0
     ],
     [
      240180.0,
      490180.0
     ]
    ]
   },
   "properties": {
    "road_id": "SYN-INT-A-B",
    "name": "Synthetic integration segment A-B",
    "highway": "unclassified"
   }
  },
  {
   "type": "Feature",
   "geometry": {
    "type": "LineString",
    "coordinates": [
     [
      240180.0,
      490180.0
     ],
     [
      240360.0,
      490180.0
     ]
    ]
   },
   "properties": {
    "road_id": "SYN-INT-B-C",
    "name": "Synthetic integration segment B-C",
    "highway": "unclassified"
   }
  },
  {
   "type": "Feature",
   "geometry": {
    "type": "LineString",
    "coordinates": [
     [
      240180.0,
      490180.0
     ],
     [
      240180.0,
      490060.0
     ]
    ]
   },
   "properties": {
    "road_id": "SYN-INT-B-D",
    "name": "Synthetic integration segment B-D",
    "highway": "unclassified"
   }
  }
 ]
}
